{ "csc_details" :[
 {
   "id": 0,
   "csc_id": 514159648307,
   "csc_name": "Divya",
   "address": "822, boron, Nagar",
   "city": "Indirapur",
   "pincode": 890480,
   "district": "J10",
   "state": "Delhi",
   "rating": 4.386094954,
   "total_rating": 5,
   "latitude": 28.40708849,
   "longitude": 77.45267238
 },
 {
   "id": 1,
   "csc_id": 864814883116,
   "csc_name": "Muskan",
   "address": "985, boron, Nagar",
   "city": "Bangalore",
   "pincode": 244423,
   "district": "A1",
   "state": "Maharashtra",
   "rating": 4.407370491,
   "total_rating": 5,
   "latitude": 28.47916298,
   "longitude": 77.13749004
 },
 {
   "id": 2,
   "csc_id": 531305964280,
   "csc_name": "Shrey",
   "address": "626, boron, Road",
   "city": "Bangalore",
   "pincode": 396940,
   "district": "I9",
   "state": "Maharashtra",
   "rating": 4.76329194,
   "total_rating": 4,
   "latitude": 28.4038806,
   "longitude": 77.24781256
 },
 {
   "id": 3,
   "csc_id": 728499619212,
   "csc_name": "Ishaan",
   "address": "101, ipsum, City",
   "city": "Delhi",
   "pincode": 582957,
   "district": "C3",
   "state": "Telangana",
   "rating": 3.771431411,
   "total_rating": 3,
   "latitude": 28.36476497,
   "longitude": 77.40790399
 },
 {
   "id": 4,
   "csc_id": 641349234452,
   "csc_name": "Ram",
   "address": "627, gypsum, Road",
   "city": "Coimbatore",
   "pincode": 673859,
   "district": "F6",
   "state": "Karnataka",
   "rating": 3.583547794,
   "total_rating": 6,
   "latitude": 28.21687749,
   "longitude": 77.26627292
 },
 {
   "id": 5,
   "csc_id": 393621888573,
   "csc_name": "Shrey",
   "address": "184, boron, Nagar",
   "city": "Coimbatore",
   "pincode": 464828,
   "district": "D4",
   "state": "Karnataka",
   "rating": 3.202267687,
   "total_rating": 4,
   "latitude": 28.55680282,
   "longitude": 77.20226489
 },
 {
   "id": 6,
   "csc_id": 574556748068,
   "csc_name": "Mansi",
   "address": "268, gypsum, Road",
   "city": "Bangalore",
   "pincode": 536492,
   "district": "F6",
   "state": "Kerala",
   "rating": 3.598709731,
   "total_rating": 3,
   "latitude": 28.45074703,
   "longitude": 77.20789168
 },
 {
   "id": 7,
   "csc_id": 554371710944,
   "csc_name": "Shyam",
   "address": "494, lorem, City",
   "city": "Ambala",
   "pincode": 870022,
   "district": "E5",
   "state": "Orissa",
   "rating": 4.989425002,
   "total_rating": 4,
   "latitude": 28.17985254,
   "longitude": 77.48162966
 },
 {
   "id": 8,
   "csc_id": 185547314796,
   "csc_name": "Jain",
   "address": "302, boron, City",
   "city": "Indirapur",
   "pincode": 274699,
   "district": "E5",
   "state": "Andhra Pradesh",
   "rating": 4.860147355,
   "total_rating": 6,
   "latitude": 28.25880963,
   "longitude": 77.39493707
 },
 {
   "id": 9,
   "csc_id": 887975596149,
   "csc_name": "Anish",
   "address": "118, ipsum, Road",
   "city": "Jaunpur",
   "pincode": 596372,
   "district": "H8",
   "state": "Delhi",
   "rating": 4.532474495,
   "total_rating": 3,
   "latitude": 28.49948043,
   "longitude": 77.34618299
 },
 {
   "id": 10,
   "csc_id": 201788578190,
   "csc_name": "Anish",
   "address": "803, ipsum, Road",
   "city": "Hoogli",
   "pincode": 365895,
   "district": "A1",
   "state": "Maharashtra",
   "rating": 3.85330352,
   "total_rating": 3,
   "latitude": 28.28055979,
   "longitude": 77.27969617
 },
 {
   "id": 11,
   "csc_id": 619340394925,
   "csc_name": "Ishaan",
   "address": "315, boron, City",
   "city": "Bangalore",
   "pincode": 127362,
   "district": "H8",
   "state": "Haryana",
   "rating": 3.540611871,
   "total_rating": 4,
   "latitude": 28.21658973,
   "longitude": 77.1629442
 },
 {
   "id": 12,
   "csc_id": 569917277763,
   "csc_name": "Anish",
   "address": "658, ipsum, Nagar",
   "city": "Fasta",
   "pincode": 940315,
   "district": "C3",
   "state": "Haryana",
   "rating": 4.247885653,
   "total_rating": 3,
   "latitude": 28.38545508,
   "longitude": 77.17855759
 },
 {
   "id": 13,
   "csc_id": 263269784458,
   "csc_name": "Jangra",
   "address": "451, boron, Nagar",
   "city": "Delhi",
   "pincode": 192450,
   "district": "F6",
   "state": "Maharashtra",
   "rating": 4.921399394,
   "total_rating": 6,
   "latitude": 28.50587297,
   "longitude": 77.27017962
 },
 {
   "id": 14,
   "csc_id": 683282526791,
   "csc_name": "Jain",
   "address": "706, lorem, Nagar",
   "city": "Bangalore",
   "pincode": 812135,
   "district": "J10",
   "state": "Maharashtra",
   "rating": 4.590575606,
   "total_rating": 4,
   "latitude": 28.31272339,
   "longitude": 77.25771845
 },
 {
   "id": 15,
   "csc_id": 300424194326,
   "csc_name": "Shyam",
   "address": "834, lorem, Nagar",
   "city": "Delhi",
   "pincode": 398561,
   "district": "B2",
   "state": "Kerala",
   "rating": 3.405824341,
   "total_rating": 4,
   "latitude": 28.48492236,
   "longitude": 77.13476778
 },
 {
   "id": 16,
   "csc_id": 177134891091,
   "csc_name": "Shyam",
   "address": "972, ipsum, City",
   "city": "Gwalior",
   "pincode": 320711,
   "district": "C3",
   "state": "Haryana",
   "rating": 3.04711188,
   "total_rating": 6,
   "latitude": 28.52868136,
   "longitude": 77.22403418
 },
 {
   "id": 17,
   "csc_id": 505401183600,
   "csc_name": "Jangra",
   "address": "434, lorem, Road",
   "city": "Gwalior",
   "pincode": 215769,
   "district": "E5",
   "state": "Haryana",
   "rating": 4.547674604,
   "total_rating": 4,
   "latitude": 28.20018416,
   "longitude": 77.50708553
 },
 {
   "id": 18,
   "csc_id": 370895082224,
   "csc_name": "Ishaan",
   "address": "719, boron, City",
   "city": "Gwalior",
   "pincode": 891353,
   "district": "D4",
   "state": "Kerala",
   "rating": 4.640266673,
   "total_rating": 6,
   "latitude": 28.36995958,
   "longitude": 77.52079766
 },
 {
   "id": 19,
   "csc_id": 659511623831,
   "csc_name": "Muskan",
   "address": "565, lorem, Nagar",
   "city": "Gwalior",
   "pincode": 998275,
   "district": "I9",
   "state": "Delhi",
   "rating": 4.687510517,
   "total_rating": 4,
   "latitude": 28.24492784,
   "longitude": 77.45653423
 },
 {
   "id": 20,
   "csc_id": 294661179419,
   "csc_name": "Shyam",
   "address": "333, gypsum, Nagar",
   "city": "Bangalore",
   "pincode": 475902,
   "district": "J10",
   "state": "Karnataka",
   "rating": 3.065928509,
   "total_rating": 4,
   "latitude": 28.20796908,
   "longitude": 77.46406537
 },
 {
   "id": 21,
   "csc_id": 550766502710,
   "csc_name": "Ishaan",
   "address": "632, ipsum, Nagar",
   "city": "Ambala",
   "pincode": 864837,
   "district": "H8",
   "state": "Delhi",
   "rating": 4.599693642,
   "total_rating": 3,
   "latitude": 28.23477837,
   "longitude": 77.49045821
 }
]}