{"po_details": [
 {
   "id": 0,
   "post_office_name": "Saraswati Vihar post office",
   "mobile_no": 7675755685,
   "address": "Saraswati Vihar",
   "city": "New Delhi",
   "pincode": 110034,
   "district": "Saraswati Vihar",
   "state": "Delhi",
   "rating": 5,
   "total_rating": 1,
   "latitude": 28.50525418,
   "longitude": 77.298992
 },
 {
   "id": 1,
   "post_office_name": "Naraina Enclave PO",
   "mobile_no": 2543652458,
   "address": "Naraina Enclave",
   "city": "New Delhi",
   "pincode": 110025,
   "district": "Naraina Enclave",
   "state": "Delhi",
   "rating": 4,
   "total_rating": 2,
   "latitude": 28.13211489,
   "longitude": 77.48544102
 },
 {
   "id": 2,
   "post_office_name": "Jan Dhan PO",
   "mobile_no": 4553576545,
   "address": "Rohini",
   "city": "New Delhi",
   "pincode": 117757,
   "district": "Rohini",
   "state": "Delhi",
   "rating": 3,
   "total_rating": 5,
   "latitude": 28.39357108,
   "longitude": 77.29587344
 },
 {
   "id": 3,
   "post_office_name": "lorem, Nagar PO",
   "mobile_no": 6032428671,
   "address": "628, gypsum, City",
   "city": "eetanagar",
   "pincode": 118419,
   "district": "F6",
   "state": "Andhra Pradesh",
   "rating": 4.064657267,
   "total_rating": 6,
   "latitude": 28.51107424,
   "longitude": 77.08795277
 },
 {
   "id": 4,
   "post_office_name": "ipsum, City PO",
   "mobile_no": 5591867041,
   "address": "630, gypsum, Nagar",
   "city": "Jaunpur",
   "pincode": 179558,
   "district": "G7",
   "state": "Maharashtra",
   "rating": 3.238655062,
   "total_rating": 6,
   "latitude": 28.44997352,
   "longitude": 77.41536968
 },
 {
   "id": 5,
   "post_office_name": "gypsum, Nagar PO",
   "mobile_no": 9585232634,
   "address": "364, boron, Road",
   "city": "Indirapur",
   "pincode": 393451,
   "district": "I9",
   "state": "Tamil Nadu",
   "rating": 3.904767967,
   "total_rating": 5,
   "latitude": 28.34579443,
   "longitude": 77.3370275
 },
 {
   "id": 6,
   "post_office_name": "ipsum, City PO",
   "mobile_no": 8890974958,
   "address": "727, lorem, City",
   "city": "eetanagar",
   "pincode": 885851,
   "district": "H8",
   "state": "Orissa",
   "rating": 4.064282506,
   "total_rating": 6,
   "latitude": 28.51166739,
   "longitude": 77.33916548
 },
 {
   "id": 7,
   "post_office_name": "boron, City PO",
   "mobile_no": 4718415527,
   "address": "291, gypsum, Nagar",
   "city": "Fasta",
   "pincode": 303837,
   "district": "D4",
   "state": "Tamil Nadu",
   "rating": 3.921678809,
   "total_rating": 4,
   "latitude": 28.1392398,
   "longitude": 77.13198436
 },
 {
   "id": 8,
   "post_office_name": "lorem, Nagar PO",
   "mobile_no": 5710625174,
   "address": "869, lorem, City",
   "city": "Hoogli",
   "pincode": 710439,
   "district": "F6",
   "state": "Haryana",
   "rating": 4.730333907,
   "total_rating": 6,
   "latitude": 28.57898912,
   "longitude": 77.47191124
 },
 {
   "id": 9,
   "post_office_name": "ipsum, Nagar PO",
   "mobile_no": 7875464608,
   "address": "693, lorem, Nagar",
   "city": "Indirapur",
   "pincode": 213024,
   "district": "A1",
   "state": "Orissa",
   "rating": 4.1382247,
   "total_rating": 5,
   "latitude": 28.145023,
   "longitude": 77.37087277
 },
 {
   "id": 10,
   "post_office_name": "ipsum, City PO",
   "mobile_no": 3403524265,
   "address": "274, boron, City",
   "city": "Bangalore",
   "pincode": 912375,
   "district": "D4",
   "state": "Andhra Pradesh",
   "rating": 4.033631118,
   "total_rating": 6,
   "latitude": 28.3739701,
   "longitude": 77.12020396
 },
 {
   "id": 11,
   "post_office_name": "ipsum, City PO",
   "mobile_no": 7101548726,
   "address": "567, lorem, City",
   "city": "Hoogli",
   "pincode": 474582,
   "district": "F6",
   "state": "Andhra Pradesh",
   "rating": 4.890839313,
   "total_rating": 5,
   "latitude": 28.28514801,
   "longitude": 77.4536181
 },
 {
   "id": 12,
   "post_office_name": "gypsum, City PO",
   "mobile_no": 9786626001,
   "address": "315, ipsum, City",
   "city": "Coimbatore",
   "pincode": 396383,
   "district": "G7",
   "state": "Orissa",
   "rating": 4.615844654,
   "total_rating": 6,
   "latitude": 28.31125683,
   "longitude": 77.35446134
 },
 {
   "id": 13,
   "post_office_name": "ipsum, City PO",
   "mobile_no": 6838768051,
   "address": "678, boron, Road",
   "city": "eetanagar",
   "pincode": 883335,
   "district": "F6",
   "state": "Maharashtra",
   "rating": 3.892054964,
   "total_rating": 4,
   "latitude": 28.44245093,
   "longitude": 77.23767857
 },
 {
   "id": 14,
   "post_office_name": "gypsum, Nagar PO",
   "mobile_no": 8592005961,
   "address": "756, lorem, Nagar",
   "city": "eetanagar",
   "pincode": 176178,
   "district": "B2",
   "state": "Haryana",
   "rating": 4.025993593,
   "total_rating": 6,
   "latitude": 28.1565209,
   "longitude": 77.5077334
 },
 {
   "id": 15,
   "post_office_name": "boron, Road PO",
   "mobile_no": 4509798912,
   "address": "569, ipsum, Nagar",
   "city": "eetanagar",
   "pincode": 890850,
   "district": "A1",
   "state": "Kerala",
   "rating": 3.293002548,
   "total_rating": 5,
   "latitude": 28.39659776,
   "longitude": 77.23364238
 },
 {
   "id": 16,
   "post_office_name": "gypsum, Road PO",
   "mobile_no": 3406433751,
   "address": "582, gypsum, Nagar",
   "city": "Indirapur",
   "pincode": 269447,
   "district": "H8",
   "state": "Tamil Nadu",
   "rating": 3.782945639,
   "total_rating": 4,
   "latitude": 28.3971691,
   "longitude": 77.56751584
 },
 {
   "id": 17,
   "post_office_name": "lorem, Nagar PO",
   "mobile_no": 6528045619,
   "address": "289, lorem, City",
   "city": "Bangalore",
   "pincode": 755132,
   "district": "B2",
   "state": "Karnataka",
   "rating": 4.745911599,
   "total_rating": 6,
   "latitude": 28.44462311,
   "longitude": 77.56348716
 },
 {
   "id": 18,
   "post_office_name": "gypsum, Road PO",
   "mobile_no": 9942661876,
   "address": "947, ipsum, Road",
   "city": "Fasta",
   "pincode": 266870,
   "district": "I9",
   "state": "Delhi",
   "rating": 4.437917178,
   "total_rating": 4,
   "latitude": 28.25396864,
   "longitude": 77.52281211
 },
 {
   "id": 19,
   "post_office_name": "lorem, City PO",
   "mobile_no": 4457506752,
   "address": "725, ipsum, Nagar",
   "city": "Gwalior",
   "pincode": 469594,
   "district": "E5",
   "state": "Telangana",
   "rating": 4.466610314,
   "total_rating": 4,
   "latitude": 28.3950528,
   "longitude": 77.0848894
 },
 {
   "id": 20,
   "post_office_name": "boron, Road PO",
   "mobile_no": 3436448097,
   "address": "534, ipsum, Nagar",
   "city": "eetanagar",
   "pincode": 955256,
   "district": "I9",
   "state": "Tamil Nadu",
   "rating": 4.636973212,
   "total_rating": 6,
   "latitude": 28.30902252,
   "longitude": 77.47909599
 },
 {
   "id": 21,
   "post_office_name": "ipsum, Nagar PO",
   "mobile_no": 4272787393,
   "address": "943, lorem, Nagar",
   "city": "Delhi",
   "pincode": 706391,
   "district": "I9",
   "state": "Maharashtra",
   "rating": 4.297025524,
   "total_rating": 4,
   "latitude": 28.18207963,
   "longitude": 77.54216108
 }
]}